OBJECT_NAME,OBJECT_ID,EPOCH,MEAN_MOTION,ECCENTRICITY,INCLINATION,RA_OF_ASC_NODE,ARG_OF_PERICENTER,MEAN_ANOMALY,EPHEMERIS_TYPE,CLASSIFICATION_TYPE,NORAD_CAT_ID,ELEMENT_SET_NO,REV_AT_EPOCH,BSTAR,MEAN_MOTION_DOT,MEAN_MOTION_DDOT
PERSEUS-M1,2014-033AF,2026-05-17T09:26:51.823104,14.95520624,.00127604,97.9634,81.0260,45.6950,314.5314,0,U,40039,999,64603,.13739677E-3,.1464E-4,0
POLYITAN-1,2014-033AJ,2026-05-17T11:57:03.655872,15.32122709,.0005589,98.0957,160.8821,245.7989,114.2667,0,U,40042,999,64889,.3581046E-3,.11026E-3,0
TIGRISAT,2014-033AK,2026-05-17T09:24:04.847328,14.85019018,.0049653,97.7796,288.1192,174.1011,186.0799,0,U,40043,999,64105,.16206185E-3,.1358E-4,0
AEROCUBE 6A,2014-033AM,2026-05-17T16:42:22.798080,14.97747275,.0040217,97.7222,304.9826,116.5408,243.9945,0,U,40045,999,64205,.33349E-3,.3917E-4,0
AEROCUBE 6B,2014-033AN,2026-05-17T17:28:07.591296,14.99167037,.0038431,97.7172,304.7412,109.8170,250.7203,0,U,40046,999,64219,.35753E-3,.4357E-4,0
CANX-4,2014-034C,2026-05-17T14:50:29.643360,14.81202798,.0014055,98.3161,11.8044,107.5131,252.7617,0,U,40055,999,64000,.77986E-4,.55E-5,0
CANX-5,2014-034D,2026-05-17T11:34:11.658432,14.81219706,.00140545,98.3163,11.7047,108.0971,252.1773,0,U,40056,999,63079,.78638443E-4,.556E-5,0
UKUBE-1,2014-037F,2026-05-17T19:38:01.650624,15.13021741,.0000323,98.4238,137.9137,131.1304,228.9952,0,U,40074,999,64396,.35731E-3,.6235E-4,0
BRITE-PL2 (HEWELIUSZ),2014-049B,2026-05-17T18:37:39.114624,14.94466895,.001354,97.9064,249.5503,205.2842,154.7717,0,U,40119,999,63690,.11826E-3,.1218E-4,0
AEROCUBE 5C,2015-058B,2026-05-17T20:40:01.549056,14.91269030,.0129899,64.7683,356.9212,75.1935,286.3526,0,U,40965,999,36113,.20217E-3,.2192E-4,0
AEROCUBE 7,2015-058C,2026-05-17T19:25:58.994112,14.95474118,.011967,64.7627,339.9477,73.8835,287.5414,0,U,40966,999,36141,.25329E-3,.3063E-4,0
FOX-1A (AO-85),2015-058D,2026-05-16T23:01:53.010912,14.90773374,.01291278,64.7768,16.0156,68.8392,292.6463,0,U,40967,999,10891,.20908009E-3,.2238E-4,0
SINOD-D 1,2015-058E,2026-05-17T07:45:27.281088,14.95649294,.01176591,64.7761,355.5486,65.4694,295.8632,0,U,40968,999,11204,.25586287E-3,.3096E-4,0
SNAP-3 ALICE,2015-058G,2026-05-17T15:47:25.925280,15.53904117,.0033182,64.7523,208.9158,27.8032,332.4875,0,U,40970,999,11213,.6488E-3,.43052E-3,0
LMRST-SAT,2015-058H,2026-05-17T15:29:02.237856,14.90402078,.013093,64.7772,10.1665,70.6006,290.9204,0,U,40971,999,10900,.20645E-3,.2194E-4,0
SNAP-3 EDDIE,2015-058J,2026-05-17T14:34:04.622016,15.55063424,.0033549,64.7439,200.0345,31.5257,328.7887,0,U,40972,999,11426,.65234E-3,.45225E-3,0
PROPCUBE 3,2015-058K,2026-05-16T14:49:07.158144,14.94030179,.0123036,64.7692,351.1555,72.4933,288.9582,0,U,40973,999,11008,.23953E-3,.2794E-4,0
BISONSAT,2015-058L,2026-05-17T11:41:51.784224,15.15533064,.00786742,64.7601,272.8422,60.3211,300.5715,0,U,40974,999,11096,.37985126E-3,.7618E-4,0
SNAP-3 JIMI,2015-058M,2026-05-17T18:20:11.131008,15.01968488,.0105072,64.7650,316.0051,67.9972,293.2269,0,U,40975,999,10965,.29609E-3,.4193E-4,0
PROPCUBE 1 (FLORA),2015-058N,2026-05-17T16:57:06.429888,14.89034120,.012973,64.7761,29.6914,72.8600,288.6669,0,U,40976,999,11172,.19697E-3,.2E-4,0
SINOD-D 3,2015-058P,2026-05-17T15:33:03.223008,14.93765228,.0118203,64.7736,11.1666,70.3384,291.0439,0,U,40977,999,11019,.24973E-3,.2866E-4,0
HORYU-4,2016-012D,2026-05-17T19:10:00.507072,15.79340876,.0004802,30.9884,299.0907,67.1367,292.9797,0,U,41340,999,56598,.72901E-3,.139695E-2,0
RAVAN,2016-067B,2026-05-17T15:12:29.851776,15.51703672,.0007185,97.9936,23.7484,107.9773,252.2261,0,U,41849,999,52295,.44664E-3,.26557E-3,0
CELTEE 1,2016-067C,2026-05-17T03:00:01.529280,15.19352679,.00015771,98.0712,1.5757,56.1369,304.0014,0,U,41850,999,52116,.18092527E-3,.3747E-4,0
OPTICUBE 04,2016-067D,2026-05-17T12:31:37.991136,15.09518363,.00147488,98.0728,348.2039,217.3624,142.6579,0,U,41851,999,52054,.98642086E-4,.1513E-4,0
AEROCUBE 8D,2016-067E,2026-05-17T08:45:45.719136,15.23932248,.00022116,98.0719,5.1972,221.4466,138.6602,0,U,41852,999,52137,.22399273E-3,.5333E-4,0
AEROCUBE 8C,2016-067F,2026-05-17T20:30:35.430336,15.24176683,.0005952,98.0590,2.9911,151.4037,208.7526,0,U,41853,999,52144,.22777E-3,.5467E-4,0
CORVUS BC2,2017-042X,2026-05-17T10:27:08.108064,15.06082946,.00122184,97.4038,299.9917,210.3708,149.6813,0,U,42846,999,48243,.12768694E-3,.1808E-4,0
CORVUS BC1,2017-042Y,2026-05-17T16:47:03.113376,15.06254569,.0011784,97.4069,301.0392,184.6233,175.4888,0,U,42847,999,48250,.11542E-3,.1636E-4,0
MAKERSAT 0,2017-073D,2026-05-17T09:43:14.262816,15.30727134,.01109012,97.4671,19.7092,23.6146,337.0130,0,U,43016,999,46175,.49983194E-3,.17905E-3,0
